{
    "links": {
        "self": "http://www.neowsapp.com/rest/v1/neo/3838847?api_key=iIulBulltgU6a56xZRHN4H3l9WmuAYTsLGpBGhQ2"
    },
    "id": "3838847",
    "neo_reference_id": "3838847",
    "name": "(2019 DY)",
    "designation": "2019 DY",
    "nasa_jpl_url": "http://ssd.jpl.nasa.gov/sbdb.cgi?sstr=3838847",
    "absolute_magnitude_h": 27.7,
    "estimated_diameter": {
        "kilometers": {
            "estimated_diameter_min": 0.0076657557,
            "estimated_diameter_max": 0.0171411509
        },
        "meters": {
            "estimated_diameter_min": 7.6657557353,
            "estimated_diameter_max": 17.1411509231
        },
        "miles": {
            "estimated_diameter_min": 0.0047632783,
            "estimated_diameter_max": 0.0106510141
        },
        "feet": {
            "estimated_diameter_min": 25.1501180466,
            "estimated_diameter_max": 56.2373735944
        }
    },
    "is_potentially_hazardous_asteroid": false,
    "close_approach_data": [
        {
            "close_approach_date": "2019-02-21",
            "close_approach_date_full": "2019-Feb-21 14:01",
            "epoch_date_close_approach": 1550757660000,
            "relative_velocity": {
                "kilometers_per_second": "8.6469435403",
                "kilometers_per_hour": "31128.9967449437",
                "miles_per_hour": "19342.3480052124"
            },
            "miss_distance": {
                "astronomical": "0.0201275894",
                "lunar": "7.8296322766",
                "kilometers": "3011044.502474578",
                "miles": "1870976.2955140564"
            },
            "orbiting_body": "Earth"
        }
    ],
    "orbital_data": {
        "orbit_id": "2",
        "orbit_determination_date": "2019-03-04 07:25:29",
        "first_observation_date": "2019-02-26",
        "last_observation_date": "2019-03-04",
        "data_arc_in_days": 6,
        "observations_used": 18,
        "orbit_uncertainty": "8",
        "minimum_orbit_intersection": ".0152585",
        "jupiter_tisserand_invariant": "3.642",
        "epoch_osculation": "2458542.5",
        "eccentricity": ".5212636814655653",
        "semi_major_axis": "2.014175430418424",
        "inclination": "4.330990090845271",
        "ascending_node_longitude": "339.2066471828863",
        "orbital_period": "1044.105462437792",
        "perihelion_distance": ".9642589304410268",
        "perihelion_argument": "145.0092802714199",
        "aphelion_distance": "3.064091930395822",
        "perihelion_time": "2458514.038034505656",
        "mean_anomaly": "9.813479525373438",
        "mean_motion": ".344792756049247",
        "equinox": "J2000",
        "orbit_class": {
            "orbit_class_type": "APO",
            "orbit_class_description": "Near-Earth asteroid orbits which cross the Earth’s orbit similar to that of 1862 Apollo",
            "orbit_class_range": "a (semi-major axis) > 1.0 AU; q (perihelion) < 1.017 AU"
        }
    },
    "is_sentry_object": false
}